STARLINK-2559
1 28298C 21036Y   21325.14848962  .00005163  00000-0  34586-3 0  3255
2 28298  53.0539 287.5694 0001915  66.9151 157.5611 15.06399059    17
